{"type":"Feature","properties":{"ISO3166-1-Alpha-3":"BHR","country":"Bahrain","fill":"#F0F","id":"4926","name":"Al Janūbīyah"},
"geometry":{"type": "MultiPolygon","coordinates": [[[[50.81545,25.63685,0.133],[50.81671,25.64444,2.7186],[50.81165,25.6495,0.9791],[50.79962,25.6514,0.0],[50.7933,25.65204,0.3598],[50.78697,25.65267,1.1162],[50.78507,25.64824,1.5504],[50.78823,25.64381,1.0168],[50.78633,25.63875,0.755],[50.79076,25.63052,1.1266],[50.79583,25.63305,1.0612],[50.80279,25.63432,0.8529],[50.80785,25.63305,0.8811],[50.81165,25.63178,0.2423],[50.81545,25.63685,0.133]]],
[[[50.81671,25.66912,1.1608],[50.81988,25.67861,2.2955],[50.80469,25.67925,1.2886],[50.80216,25.67482,1.1796],[50.80405,25.66975,0.568],[50.80848,25.66406,1.2026],[50.81671,25.66912,1.1608]]],
[[[50.80089,25.72481,0.0],[50.80089,25.73114,0.0],[50.79076,25.72608,0.5736],[50.78254,25.72038,0.0],[50.77431,25.72165,0.1],[50.76861,25.71659,0.7755],[50.75533,25.70203,0.7858],[50.7452,25.68747,0.7129],[50.7414,25.67418,1.4343],[50.74014,25.66216,0.1513],[50.7395,25.6533,0.2678],[50.74836,25.64444,0.4284],[50.74836,25.63052,1.2769],[50.749,25.62103,0.0],[50.7414,25.6052,0.0],[50.73761,25.59571,0.0],[50.7452,25.58495,0.0],[50.75659,25.57989,0.2224],[50.75976,25.58242,0.0],[50.75722,25.58875,0.0],[50.76229,25.59761,0.1953],[50.76798,25.60647,0.0],[50.77431,25.61217,0.0],[50.76988,25.61786,7.2813],[50.76418,25.62166,0.0],[50.76545,25.62989,0.0],[50.76925,25.63621,0.0],[50.77621,25.63875,0.0],[50.77431,25.64507,0.0],[50.76672,25.65457,0.0],[50.76229,25.66786,0.0],[50.76608,25.67165,0.0],[50.77431,25.67861,1.1348],[50.78001,25.68241,1.0746],[50.79203,25.67988,0.4709],[50.79583,25.68494,2.7099],[50.78823,25.69254,0.0],[50.78317,25.69697,0.0],[50.79076,25.70583,0.0],[50.79836,25.71595,1.227],[50.80089,25.72481,0.0]]],
[[[50.7914,25.74886,0.2361],[50.79013,25.75519,1.0433],[50.78317,25.75582,1.0344],[50.77558,25.75266,0.8434],[50.78064,25.74506,0.0],[50.7914,25.74886,0.2361]]],
[[[50.52449,26.1289,39.2218],[50.53109,26.1038,28.1538],[50.53902,26.05623,34.0947],[50.51524,26.04698,19.1839],[50.4909,26.048,3.5485],[50.48544,26.03343,2.3433],[50.47999,26.01887,2.0999],[50.46046,25.9853,0.8848],[50.46046,25.98526,0.8848],[50.46778,25.95759,1.9566],[50.5114,25.91303,0.8435],[50.53142,25.88524,1.8645],[50.54721,25.85293,0.0],[50.5586,25.81977,1.3077],[50.56528,25.78954,0.0],[50.56544,25.7897,0.0],[50.59449,25.83271,2.4037],[50.60353,25.85456,4.3625],[50.61842,25.96475,0.0],[50.62062,26.05296,1.1176],[50.61629,26.09593,6.2158],[50.58131,26.1223,26.8822],[50.56941,26.11569,45.6374],[50.52449,26.1289,39.2218]]]]}}