{"type":"Feature","properties":{"GID_1":"BHR.5_1","GID_0":"BHR","country":"Bahrain","province":"Southern","VARNAME_1":"al-Muhafazahal-Janobiyah","NL_NAME_1":"NA","TYPE_1":"Muhafazah","ENGTYPE_1":"Governorate","CC_1":"NA","HASC_1":"BH.SO","ISO_1":"NA","name":"Southern.province"},
"geometry":{"type": "MultiPolygon","coordinates": [[[[50.7932,25.6135,0.0],[50.7932,25.6146,0.0],[50.7904,25.614,0.0],[50.7912,25.6129,0.0],[50.7932,25.6135,0.0]]],
[[[50.7943,25.6601,0.5559],[50.789,25.6607,0.1574],[50.7868,25.6601,0.4563],[50.7857,25.6576,0.4657],[50.7821,25.659,0.0],[50.7796,25.6579,0.0],[50.7826,25.6521,1.032],[50.7843,25.651,1.4008],[50.7876,25.6518,1.7512],[50.786,25.6476,1.5504],[50.7915,25.6437,2.2652],[50.7885,25.6418,1.8704],[50.7882,25.6393,2.381],[50.7857,25.6399,0.0],[50.7888,25.634,0.6465],[50.7888,25.6299,0.0],[50.7918,25.6282,0.0],[50.7974,25.6324,0.7061],[50.804,25.6326,0.3012],[50.8018,25.6293,0.0],[50.8046,25.6282,0.0],[50.8082,25.6304,0.0],[50.8165,25.6318,0.0],[50.8176,25.634,0.0],[50.8146,25.6368,0.939],[50.8193,25.6429,0.0],[50.8179,25.6457,0.0],[50.8143,25.6468,2.4851],[50.8124,25.651,0.0],[50.8076,25.6496,0.4527],[50.8015,25.6521,0.0],[50.7976,25.6504,1.5431],[50.7949,25.6463,2.9925],[50.7921,25.6468,2.0313],[50.7904,25.6499,1.4352],[50.7946,25.6493,1.5451],[50.7926,25.6529,0.0],[50.7932,25.6551,0.2558],[50.7904,25.6549,1.0338],[50.7904,25.6518,1.1044],[50.789,25.653199999999998,1.0092],[50.791,25.6582,1.786],[50.7954,25.6551,0.0],[50.7943,25.6601,0.5559]]],
[[[50.8151,25.6868,0.0],[50.8112,25.6879,0.1939],[50.8112,25.6815,1.3351],[50.804,25.6804,0.5766],[50.8013,25.6779,0.1798],[50.801,25.6749,1.1796],[50.7996,25.6749,0.0],[50.8013,25.6701,0.0],[50.8043,25.6688,0.568],[50.8032,25.6663,0.0],[50.806,25.6646,0.1844],[50.8118,25.6682,0.5862],[50.8187,25.6699,0.0],[50.8213,25.6774,0.7028],[50.8238,25.6787,0.0],[50.8201,25.6821,0.3275],[50.8146,25.6838,1.1438],[50.8151,25.6868,0.0]]],
[[[50.7993,25.6932,0.9194],[50.7974,25.6938,0.0],[50.7968,25.6926,1.2063],[50.799,25.6926,0.9194],[50.7993,25.6932,0.9194]]],
[[[50.7693,25.681,2.9785],[50.7682,25.6815,2.9785],[50.7676,25.6799,0.9801],[50.7696,25.6787,2.0645],[50.7701,25.6804,2.3521],[50.7693,25.681,2.9785]]],
[[[50.7926,25.729,0.0],[50.7918,25.7299,0.4284],[50.7899,25.7279,0.0],[50.7924,25.7274,0.1554],[50.7926,25.729,0.0]]],
[[[50.7879,25.7551,1.3449],[50.7843,25.7557,1.0455],[50.7846,25.7543,1.088],[50.7799,25.7535,1.0155],[50.7799,25.7551,0.6559],[50.7779,25.7551,0.4656],[50.774,25.7535,0.8434],[50.7735,25.7507,0.7724],[50.7774,25.7482,0.6365],[50.7776,25.7443,0.0],[50.7804,25.744,0.0],[50.7815,25.7457,1.1478],[50.7901,25.7476,0.4687],[50.7924,25.7501,0.0],[50.7918,25.754,0.3282],[50.7879,25.7551,1.3449]]],
[[[50.8018,25.6999,0.0],[50.7979,25.7004,0.0],[50.7976,25.6996,0.0],[50.8007,25.6988,0.0],[50.8018,25.6999,0.0]]],
[[[50.8249,25.7404,2.4253],[50.8229,25.741,0.0],[50.8218,25.739,0.0],[50.8243,25.7388,2.4253],[50.8249,25.7404,2.4253]]],
[[[50.7818,25.6193,0.5369],[50.7818,25.621,0.1298],[50.7793,25.621,0.0],[50.7796,25.6196,0.0],[50.7818,25.6193,0.5369]]],
[[[50.7826,25.6338,0.0],[50.7799,25.6343,0.0],[50.7768,25.6304,0.0],[50.7801,25.629,0.0992],[50.7818,25.631,0.3935],[50.781,25.6296,0.0992],[50.7835,25.6293,0.0],[50.7846,25.6318,0.0],[50.7826,25.6338,0.0]]],
[[[50.7765,25.6674,0.0],[50.7743,25.6682,1.076],[50.7735,25.6646,0.0],[50.7701,25.664,0.0],[50.7729,25.6593,0.0],[50.7743,25.6612,3.1313],[50.7799,25.6624,6.3678],[50.7765,25.6674,0.0]]],
[[[50.786,25.6757,0.5362],[50.7851,25.6765,0.5362],[50.7824,25.6763,0.5246],[50.7837,25.6738,0.6903],[50.786,25.6757,0.5362]]],
[[[50.7335,25.5607,0.1168],[50.7324,25.5624,0.0],[50.7318,25.5601,0.0],[50.7337,25.5574,0.2132],[50.7385,25.5571,1.1351],[50.7382,25.5585,1.1351],[50.7335,25.5607,0.1168]]],
[[[50.7715,25.6174,7.2813],[50.771,25.6193,0.0],[50.7679,25.619,0.0],[50.7663,25.6157,1.6836],[50.7637,25.6165,0.8855],[50.7613,25.6143,0.664],[50.7607,25.6162,0.0],[50.756,25.6132,4.214],[50.7529,25.6132,2.4935],[50.7493,25.6079,5.3011],[50.7493,25.6043,6.5217],[50.7454,25.6015,2.3378],[50.7465,25.5974,2.6333],[50.7446,25.5971,2.3369],[50.7438,25.5901,2.1772],[50.7457,25.5868,1.0121],[50.7479,25.5865,2.6616],[50.7482,25.5843,1.9205],[50.7521,25.5838,1.9733],[50.7538,25.5812,0.192],[50.7671,25.5779,0.4556],[50.7776,25.5718,0.0],[50.7762,25.5746,0.0],[50.7735,25.5746,0.0],[50.766,25.5796,0.0],[50.7604,25.5818,1.0813],[50.7546,25.5871,1.7428],[50.756,25.5901,0.0],[50.7593,25.5915,0.0],[50.7596,25.5943,0.0],[50.7613,25.5951,0.0],[50.7604,25.5963,0.3966],[50.7637,25.5982,0.0],[50.7607,25.601,0.8584],[50.7615,25.6035,0.0],[50.7704,25.6093,0.4926],[50.7743,25.6093,0.0],[50.7749,25.616,0.0],[50.7735,25.6165,0.9648],[50.7729,25.6149,1.237],[50.7715,25.6174,7.2813]]],
[[[50.7996,25.7299,2.3533],[50.8007,25.734,0.0],[50.7974,25.7321,0.0],[50.7968,25.7296,0.0],[50.794,25.7293,0.0],[50.7935,25.7271,0.1554],[50.7876,25.726,0.0],[50.7865,25.7235,2.6954],[50.7849,25.7235,0.4563],[50.786,25.719,0.0],[50.7832,25.7174,1.0261],[50.781,25.721,0.2121],[50.7735,25.721,0.1585],[50.7696,25.7193,0.0],[50.7687,25.7171,0.1693],[50.7671,25.7171,0.0],[50.7682,25.7149,1.3243],[50.7646,25.7132,0.0],[50.7626,25.7076,0.265],[50.7601,25.7049,1.1309],[50.7585,25.7051,0.1864],[50.7571,25.7013,0.7858],[50.7515,25.6979,0.4756],[50.7443,25.6882,0.208],[50.744,25.6818,0.3809],[50.7401,25.6763,0.5156],[50.7412,25.6726,0.9129],[50.7421,25.6743,1.4343],[50.7443,25.6701,1.4835],[50.7421,25.669,0.4304],[50.7399,25.6621,0.1513],[50.7401,25.6604,1.8316],[50.7429,25.6599,2.0793],[50.7412,25.6599,2.0793],[50.7407,25.6576,2.1172],[50.7388,25.6582,0.0],[50.734,25.653199999999998,0.0],[50.7388,25.6557,0.2664],[50.7415,25.6529,1.6916],[50.7399,25.6488,0.0],[50.7454,25.6485,0.2108],[50.751,25.6421,1.3741],[50.7515,25.6354,2.3161],[50.7507,25.6324,2.265],[50.7482,25.6304,2.3702],[50.7496,25.629,3.4541],[50.7479,25.6282,2.4752],[50.7515,25.6226,2.5107],[50.7501,25.6143,2.1817],[50.756,25.614,1.7836],[50.7615,25.6207,0.898],[50.7671,25.6232,0.0],[50.7663,25.6254,0.0],[50.7618,25.6265,2.1259],[50.7621,25.6304,1.4682],[50.7654,25.6346,6.0484],[50.7674,25.6338,0.3703],[50.7671,25.6376,0.4488],[50.7718,25.6379,0.4763],[50.7738,25.6363,0.3865],[50.7762,25.6396,0.0],[50.7749,25.6418,1.4636],[50.7721,25.6413,2.1809],[50.7735,25.6471,0.3001],[50.7701,25.6485,5.808],[50.7699,25.6524,0.0],[50.7629,25.651,4.8696],[50.7632,25.6535,1.2872],[50.7649,25.6537,1.5887],[50.7637,25.6574,1.5533],[50.7663,25.6593,0.0],[50.7635,25.6599,0.0],[50.7618,25.659,0.3605],[50.7613,25.6621,0.6507],[50.7579,25.664,0.2149],[50.7601,25.6721,1.6271],[50.7646,25.6729,0.5735],[50.7668,25.6754,0.0],[50.7726,25.6746,0.2085],[50.7735,25.6771,2.8771],[50.7674,25.6763,3.2368],[50.7668,25.6779,3.5066],[50.7646,25.6779,0.744],[50.764,25.6765,3.3085],[50.7538,25.6754,1.3406],[50.749,25.6787,2.1288],[50.749,25.6813,1.0226],[50.7551,25.6849,1.5391],[50.7593,25.6849,1.2334],[50.7651,25.6821,1.6602],[50.7676,25.6843,2.1546],[50.769,25.6824,1.3257],[50.7754,25.6807,3.7061],[50.7757,25.6779,1.1348],[50.774,25.6774,1.1348],[50.7762,25.6768,0.0],[50.7799,25.6787,0.2437],[50.781,25.6813,0.7736],[50.7874,25.6815,0.6696],[50.7851,25.6787,0.3001],[50.7868,25.6782,0.5003],[50.7912,25.6793,0.4709],[50.7915,25.6818,0.9869],[50.7974,25.6826,0.3705],[50.7965,25.6876,0.0],[50.789,25.6899,2.6145],[50.7879,25.6957,1.2992],[50.786,25.6963,0.3375],[50.7849,25.6932,1.1353],[50.7821,25.6918,1.724],[50.7804,25.6943,0.9063],[50.7826,25.6996,0.4283],[50.7851,25.6988,0.0],[50.7835,25.7021,1.5197],[50.7904,25.7035,0.0],[50.7918,25.7079,0.6045],[50.7974,25.7132,0.0],[50.7965,25.7188,1.95],[50.7976,25.721,1.7818],[50.7949,25.7221,2.7591],[50.801,25.7282,0.0],[50.7996,25.7299,2.3533]]],
[[[50.769,25.7565,0.568],[50.7676,25.7576,0.0],[50.7663,25.7554,0.9472],[50.7596,25.7521,0.1328],[50.7607,25.7479,0.0],[50.7715,25.7471,0.6316],[50.7732,25.7488,0.7829],[50.7707,25.756,0.2654],[50.769,25.7565,0.568]]],
[[[50.6204,26.0943,0.0],[50.6179,26.1013,0.0],[50.6207,26.1018,0.0],[50.6199,26.1049,0.0],[50.6293,26.1121,0.5286],[50.6271,26.1179,0.0],[50.6229,26.1213,2.0529],[50.6196,26.1276,0.0],[50.6153,26.1241,1.8929],[50.6012,26.1363,3.6237],[50.5979,26.1363,4.0968],[50.5872,26.1437,4.3177],[50.5768,26.1533,7.0106],[50.5698,26.1666,5.9293],[50.5584,26.1695,9.9415],[50.5457,26.1657,9.3724],[50.5426,26.1307,44.7253],[50.5194,26.1378,32.1905],[50.5194,26.1292,37.3387],[50.5136,26.1217,42.3135],[50.5204,26.1115,39.8918],[50.5265,26.0586,15.9337],[50.5207,26.0556,15.5883],[50.497,26.0518,2.1047],[50.4832,26.0472,0.0],[50.4851,26.0454,2.281],[50.4851,26.0415,2.4726],[50.4779,26.0307,0.613],[50.4765,26.0251,3.1504],[50.4749,26.0229,0.3266],[50.4724,26.0229,0.0],[50.4735,26.0215,1.8916],[50.4715,26.0201,1.1607],[50.4726,26.0187,0.297],[50.4718,26.0035,0.9953],[50.4596,25.9899,0.4065],[50.456,25.9804,3.118],[50.4529,25.9807,0.2812],[50.4546,25.979,0.8422],[50.4565,25.9704,0.0],[50.4557,25.9624,0.0],[50.4574,25.956,1.4491],[50.4712,25.9351,0.0],[50.4924,25.9243,2.3096],[50.4938,25.9212,0.0],[50.501,25.9151,0.0],[50.5187,25.8949,0.0],[50.5193,25.896,0.0],[50.5157,25.9029,0.5926],[50.5174,25.903199999999998,0.0],[50.5165,25.9054,0.7562],[50.521,25.9004,1.5953],[50.5226,25.8929,0.0],[50.5479,25.8546,1.1127],[50.5513,25.8465,0.0],[50.5513,25.8363,0.0],[50.5549,25.8204,0.4272],[50.5668,25.7988,0.0],[50.5674,25.8001,0.0],[50.5668,25.8057,0.1585],[50.571,25.8137,0.838],[50.5835,25.8263,2.2309],[50.5887,25.8279,1.9563],[50.5887,25.831,0.2861],[50.5946,25.834,1.9462],[50.6007,25.8451,0.0],[50.6076,25.851,0.0],[50.6032,25.8604,2.4322],[50.6063,25.869,7.0775],[50.6049,25.8799,0.6289],[50.6076,25.8918,0.0],[50.6046,25.8965,0.4983],[50.6074,25.899,0.0],[50.6085,25.8937,0.0],[50.6085,25.9051,0.0],[50.6101,25.9057,0.0],[50.6104,25.9107,0.4655],[50.6065,25.9143,1.1657],[50.6104,25.9224,0.0],[50.6121,25.9332,0.4791],[50.6138,25.9349,0.1912],[50.6115,25.9376,0.6636],[50.6115,25.9435,0.2831],[50.6146,25.9463,0.0],[50.6132,25.9521,3.2061],[50.6157,25.9538,0.0],[50.6121,25.9579,2.2958],[50.614,25.9604,0.5363],[50.6132,25.9701,2.1627],[50.6185,25.9713,0.0],[50.6143,25.9732,1.5823],[50.619,25.9943,0.4136],[50.6204,26.0096,2.7351],[50.6249,26.011,1.3956],[50.6257,26.0138,0.4496],[50.6243,26.0187,0.3235],[50.6263,26.031,2.8954],[50.6249,26.0324,0.2074],[50.6268,26.0318,2.8954],[50.6276,26.0351,1.1099],[50.6299,26.034,0.0],[50.6321,26.0388,0.3873],[50.6312,26.0413,0.4399],[50.6299,26.0424,0.0],[50.6274,26.0415,0.9042],[50.6254,26.0449,0.0],[50.6207,26.0443,1.0247],[50.6185,26.0526,3.0325],[50.6201,26.0543,0.2103],[50.619,26.0682,0.6398],[50.6254,26.0707,0.0],[50.6235,26.0721,3.783],[50.6224,26.0771,2.6983],[50.6185,26.0782,2.8616],[50.6196,26.0804,2.8206],[50.6179,26.0863,2.057],[50.621,26.090699999999998,3.4584],[50.6232,26.0912,2.9868],[50.6196,26.0929,1.9197],[50.6204,26.0943,0.0]]],
[[[50.6296,26.1382,1.9391],[50.629,26.1396,2.2445],[50.6229,26.1301,0.0],[50.6296,26.1151,0.625],[50.631,26.1149,8.3743],[50.631,26.1118,0.4757],[50.6335,26.1121,3.018],[50.6335,26.1099,0.0],[50.6363,26.1085,0.0],[50.6376,26.1115,0.9183],[50.636,26.1112,0.9183],[50.6357,26.1135,0.0],[50.6382,26.1132,0.0],[50.6393,26.1146,0.0],[50.6346,26.1251,0.0],[50.6307,26.1262,1.4393],[50.6315,26.1304,1.8921],[50.6335,26.1318,0.0],[50.6299,26.1343,0.1868],[50.6296,26.1382,1.9391]]],
[[[50.6312,26.1443,1.5917],[50.629,26.1396,2.2445],[50.6329,26.1393,1.3634],[50.6385,26.1421,3.4766],[50.6399,26.139,0.0],[50.6418,26.1388,1.6325],[50.6499,26.1426,1.95],[50.646,26.1482,2.3092],[50.646,26.1513,1.5625],[50.6529,26.1543,0.25],[50.6593,26.153199999999998,0.0],[50.6765,26.1551,0.0],[50.6721,26.1568,0.0],[50.674,26.1582,0.0],[50.6718,26.1607,0.0],[50.6621,26.156,0.1587],[50.6604,26.1582,2.1107],[50.6632,26.159,0.0],[50.666,26.1629,0.0],[50.6693,26.1615,0.0],[50.6651,26.1665,0.0],[50.6649,26.1626,0.0],[50.6435,26.1526,0.942],[50.6435,26.1468,4.6402],[50.6374,26.144,4.4472],[50.6379,26.1426,3.1486],[50.6338,26.141,1.5576],[50.6329,26.1443,1.9815],[50.6312,26.1443,1.5917]]]]}}