{"type":"Feature","properties":{"ISO3166-1-Alpha-3":"BHR","country":"Bahrain","fill":"#00F","id":"4927","name":"Ash Shamālīyah"},
"geometry":{"type": "MultiPolygon","coordinates": [[[[50.42132,26.13502,0.7128],[50.41917,26.14897,0.0],[50.41917,26.16614,0.8903],[50.40844,26.17151,2.4849],[50.3977,26.17473,2.1281],[50.38268,26.1597,0.1517],[50.38053,26.13931,0.0],[50.3859,26.12321,0.0],[50.40522,26.12428,1.0671],[50.42347,26.11999,0.0775],[50.42132,26.13502,0.7128]]],
[[[50.48146,26.24258,0.0],[50.46852,26.23688,3.0042],[50.46119,26.22525,3.5858],[50.44955,26.17796,0.0],[50.4489,26.16161,3.7693],[50.45297,26.14956,5.8914],[50.46998,26.12263,4.0093],[50.4852,26.08564,5.8419],[50.4909,26.04804,3.5485],[50.4909,26.048,3.5485],[50.51524,26.04698,19.1839],[50.53902,26.05623,34.0947],[50.53109,26.1038,28.1538],[50.52449,26.1289,39.2218],[50.50995,26.17779,5.3437],[50.52184,26.18837,2.7244],[50.55161,26.19424,3.9653],[50.53506,26.21347,7.1416],[50.50202,26.21611,9.7884],[50.50392,26.24201,1.1445],[50.4826,26.24254,0.0],[50.48162,26.24254,0.0],[50.48146,26.24258,0.0]]]]}}