{"type":"Feature","properties":{"GID_1":"BHR.4_1","GID_0":"BHR","country":"Bahrain","province":"Northern","VARNAME_1":"al-Muhafazahash-Shamaliyah","NL_NAME_1":"NA","TYPE_1":"Muhafazah","ENGTYPE_1":"Governorate","CC_1":"NA","HASC_1":"BH.NO","ISO_1":"NA","name":"Northern.province"},
"geometry":{"type": "MultiPolygon","coordinates": [[[[50.5149,26.2238,7.8163],[50.5177,26.2261,9.6503],[50.5181,26.2289,6.7198],[50.5129,26.236,1.3401],[50.4849,26.2354,2.4149],[50.4829,26.2329,6.8776],[50.4813,26.2343,1.0976],[50.4765,26.2343,0.0],[50.4712,26.2326,1.4952],[50.4707,26.2343,0.0],[50.4688,26.2335,0.5597],[50.4685,26.2313,4.7645],[50.464,26.229,2.7991],[50.4615,26.231,0.5272],[50.4618,26.2282,3.2716],[50.4601,26.2279,1.5661],[50.461,26.2243,3.4659],[50.4576,26.2221,3.6931],[50.4543,26.2224,0.0],[50.4557,26.2201,3.4887],[50.4496,26.2201,1.8921],[50.4504,26.2179,3.6286],[50.4474,26.2182,4.8552],[50.446,26.2151,2.9178],[50.4485,26.2107,3.4479],[50.4451,26.2118,1.7849],[50.4496,26.2026,1.6359],[50.4529,26.2038,1.993],[50.4554,26.1985,1.1907],[50.4526,26.1904,0.0],[50.4532,26.1879,0.9644],[50.4551,26.1874,2.1602],[50.4546,26.1826,1.3527],[50.4468,26.1718,0.0],[50.4379,26.1729,0.0],[50.4371,26.1718,0.0],[50.441,26.1712,0.0],[50.4201,26.1682,0.5702],[50.419,26.1729,0.5919],[50.4065,26.1721,1.3797],[50.4074,26.1796,0.0],[50.4065,26.189,1.7146],[50.4093,26.1915,1.5624],[50.4124,26.1901,0.0],[50.4129,26.1915,0.0],[50.4113,26.1921,2.6819],[50.4118,26.1943,0.0],[50.4082,26.1938,0.0],[50.3996,26.1965,3.0255],[50.3982,26.196,4.8427],[50.3993,26.1926,2.6926],[50.4032,26.1926,2.9102],[50.4029,26.191,0.0],[50.4043,26.1921,5.5425],[50.4057,26.1904,1.7146],[50.4065,26.1785,0.0],[50.4038,26.1701,3.5354],[50.3943,26.1724,0.0],[50.3843,26.1782,0.0],[50.3729,26.1813,0.526],[50.3343,26.1829,2.3851],[50.3321,26.186,0.0],[50.3251,26.1851,4.4392],[50.3243,26.1863,2.0959],[50.3238,26.1829,0.0],[50.3296,26.1801,0.0],[50.334,26.1821,2.3851],[50.376,26.1796,0.0],[50.3963,26.1707,0.5197],[50.3937,26.1699,0.0],[50.394,26.1671,0.0],[50.3907,26.1688,0.0],[50.3901,26.1665,0.0],[50.3879,26.1665,0.0],[50.3857,26.1638,0.1192],[50.384,26.1646,0.0],[50.3854,26.1693,0.0],[50.3826,26.1693,0.0],[50.3807,26.1596,0.0],[50.3782,26.1574,0.0],[50.379,26.1507,1.5],[50.3779,26.1493,0.0],[50.3788,26.1443,5.2935],[50.3832,26.1413,1.7037],[50.3821,26.1338,0.0],[50.386,26.1324,0.5146],[50.3846,26.124,0.0],[50.3971,26.121,0.0],[50.4068,26.1243,0.7129],[50.4104,26.1243,1.319],[50.4101,26.1213,0.0],[50.4118,26.1221,0.0],[50.4113,26.124,1.319],[50.4207,26.1204,0.0],[50.4232,26.1215,0.6305],[50.4224,26.1282,0.0],[50.4243,26.1315,0.0],[50.4229,26.134,0.2005],[50.4204,26.134,0.7128],[50.4204,26.1363,0.0],[50.4185,26.136,0.3972],[50.4174,26.1404,1.1097],[50.419,26.1415,0.0],[50.4168,26.1449,1.488],[50.4207,26.1618,0.6487],[50.4201,26.1674,0.5702],[50.4468,26.1712,0.0],[50.4507,26.1701,0.8458],[50.4476,26.1674,0.0],[50.4471,26.1621,0.7836],[50.4499,26.1565,3.2222],[50.4532,26.1407,1.8499],[50.4468,26.1388,0.0],[50.4471,26.136,0.0],[50.4493,26.1349,0.0],[50.454,26.1368,0.0],[50.454,26.1343,0.396],[50.4585,26.1329,2.2273],[50.4571,26.1301,0.9506],[50.4585,26.1268,0.0],[50.4632,26.1185,1.5498],[50.4663,26.1179,2.0203],[50.4654,26.116,2.414],[50.464,26.1165,1.3432],[50.4637,26.1138,0.0],[50.4665,26.114,2.8246],[50.4663,26.109,0.0],[50.4682,26.1076,0.605],[50.4707,26.1085,0.62],[50.4696,26.1068,0.4379],[50.4718,26.1065,1.4052],[50.471,26.1043,0.0],[50.4721,26.1029,0.0],[50.4746,26.104,1.2521],[50.4757,26.1021,1.9466],[50.4738,26.101,0.0],[50.4757,26.101,2.9843],[50.4754,26.0996,0.0],[50.4782,26.0979,1.8193],[50.4799,26.0838,1.9192],[50.4782,26.0835,0.0],[50.4796,26.0826,3.1752],[50.4782,26.0815,0.0],[50.4801,26.0818,1.6732],[50.4818,26.0799,4.1505],[50.4821,26.076,2.046],[50.4779,26.0749,0.7175],[50.4807,26.0738,0.0],[50.4801,26.0624,0.8931],[50.4832,26.0588,0.0],[50.4815,26.0493,0.0],[50.4832,26.0472,0.0],[50.497,26.0518,2.1047],[50.5207,26.0556,15.5883],[50.5265,26.0586,15.9337],[50.5204,26.1115,39.8918],[50.5136,26.1217,42.3135],[50.5194,26.1292,37.3387],[50.5194,26.1378,32.1905],[50.5426,26.1307,44.7253],[50.5461,26.1699,9.1069],[50.5421,26.1969,2.5263],[50.5294,26.2154,9.1765],[50.5145,26.2187,8.6806],[50.5138,26.2216,9.7115],[50.5149,26.2238,7.8163]]],
[[[50.3221,26.1825,1.4318],[50.3229,26.1819,0.0],[50.3232,26.1827,0.0],[50.3226,26.1826,1.4318],[50.3221,26.1825,1.4318]]],
[[[50.3179,26.1835,0.4765],[50.3177,26.1836,0.4765],[50.3176,26.1837,0.4765],[50.3176,26.1835,0.4765],[50.3179,26.1835,0.4765]]],
[[[50.3165,26.1857,0.0],[50.317,26.1851,3.706],[50.3169,26.1853,0.0],[50.3163,26.1862,0.0],[50.3165,26.1857,0.0]]],
[[[50.3118,26.179,0.0],[50.3104,26.1796,0.0],[50.3096,26.1749,0.0],[50.3143,26.1771,0.2194],[50.3118,26.179,0.0]]],
[[[50.316,26.1863,0.0],[50.3162,26.1863,0.0],[50.316,26.1865,0.0],[50.316,26.1863,0.0]]],
[[[50.3159,26.1865,0.0],[50.3157,26.1868,0.0],[50.3157,26.1868,0.0],[50.3157,26.1865,0.0],[50.3159,26.1865,0.0]]],
[[[50.3157,26.1868,0.0],[50.3156,26.1869,0.0],[50.3154,26.1871,3.4754],[50.3154,26.1868,0.0],[50.3157,26.1868,0.0]]],
[[[50.324,26.1864,2.0959],[50.324,26.1868,2.0959],[50.3239,26.1868,2.0959],[50.324,26.1864,2.0959]]],
[[[50.3195,26.1876,3.4087],[50.3238,26.1871,0.0],[50.3221,26.1887,3.2457],[50.3185,26.1879,2.4914],[50.3195,26.1876,3.4087]]],
[[[50.4374,26.2015,2.0543],[50.4371,26.2032,0.6538],[50.4349,26.2029,0.9925],[50.4368,26.1968,1.0275],[50.4388,26.1979,0.0],[50.4374,26.2015,2.0543]]],
[[[50.3143,26.1876,0.0],[50.3152,26.1874,3.4754],[50.3146,26.188,0.0],[50.3138,26.1882,0.0],[50.3143,26.1876,0.0]]],
[[[50.3132,26.1882,0.0],[50.3137,26.1882,0.0],[50.3132,26.1883,0.0],[50.3132,26.1882,0.0]]],
[[[50.3126,26.1885,0.0],[50.3176,26.1878,2.4914],[50.2757,26.2082,0.0],[50.2747,26.2074,0.0],[50.3046,26.1929,0.0],[50.3126,26.1885,0.0]]]]}}