{"type":"Feature","properties":{"ISO3166-1-Alpha-3":"BHR","country":"Bahrain","fill":"#F0F","id":"4930","name":"Al Muḩarraq"},
"geometry":{"type": "Polygon","coordinates": [[[50.60165,26.27885,4.3998],[50.5995,26.26275,6.7654],[50.61238,26.24128,0.2326],[50.62097,26.2445,0.0],[50.63385,26.24236,0.0],[50.64781,26.23914,3.0395],[50.65317,26.22518,2.9679],[50.65747,26.21123,4.0464],[50.67357,26.20264,3.1541],[50.67894,26.20801,4.2363],[50.6843,26.22196,5.266],[50.67142,26.22733,0.0],[50.65639,26.24665,5.4828],[50.65639,26.26168,1.7391],[50.65532,26.2767,5.2678],[50.63278,26.28744,1.44],[50.60165,26.27885,4.3998]]]}}