{"type":"Feature","properties":{"GID_1":"BHR.3_1","GID_0":"BHR","country":"Bahrain","province":"Muharraq","VARNAME_1":"Muhafazatal-Muharaq","NL_NAME_1":"NA","TYPE_1":"Muhafazah","ENGTYPE_1":"Governorate","CC_1":"NA","HASC_1":"BH.MU","ISO_1":"NA","name":"Muharraq.province"},
"geometry":{"type": "MultiPolygon","coordinates": [[[[50.6626,26.231,2.9288],[50.6585,26.2307,5.0642],[50.659,26.2282,3.484],[50.6565,26.2246,3.3958],[50.6524,26.2251,2.9679],[50.6526,26.2218,0.0],[50.6549,26.2215,1.5022],[50.6549,26.2182,2.2881],[50.651,26.219,1.5258],[50.6507,26.2162,2.3367],[50.656,26.2096,0.0],[50.6562,26.2057,0.0],[50.6607,26.2029,3.7062],[50.6626,26.191,0.0],[50.6662,26.186,0.7812],[50.6657,26.1846,0.0],[50.6685,26.1846,0.6519],[50.6696,26.1813,0.0],[50.6796,26.1813,0.0],[50.6751,26.1865,0.0],[50.6765,26.1899,0.0],[50.6849,26.194,6.1313],[50.6871,26.1901,0.0],[50.6888,26.1901,0.0],[50.6885,26.1932,0.0],[50.6815,26.2046,3.1577],[50.6785,26.2046,3.6122],[50.6787,26.2154,3.6881],[50.6846,26.216,2.0487],[50.6846,26.226,1.3594],[50.666,26.2265,2.0731],[50.6668,26.2288,0.0],[50.6626,26.231,2.9288]]],
[[[50.6288,26.2882,3.4331],[50.621,26.2871,0.0],[50.6213,26.2843,4.1849],[50.6157,26.2835,2.234],[50.6168,26.2815,1.9631],[50.6154,26.2807,1.9631],[50.6135,26.2804,2.6919],[50.6151,26.2826,1.8607],[50.6138,26.2832,1.8607],[50.6099,26.2768,4.2645],[50.604,26.2796,5.088],[50.6007,26.2787,3.6584],[50.6029,26.2776,5.0092],[50.6029,26.2726,5.0699],[50.6046,26.2718,3.65],[50.6021,26.2674,4.3316],[50.6035,26.2651,4.2091],[50.6035,26.2488,1.2567],[50.6063,26.2476,0.2304],[50.6118,26.241,0.2326],[50.6176,26.2415,0.0],[50.621,26.2454,0.0],[50.6224,26.2554,1.8551],[50.6249,26.2574,3.0366],[50.624,26.2557,2.7082],[50.6265,26.2543,2.4225],[50.6282,26.2551,4.4575],[50.6263,26.2529,3.3713],[50.629,26.246,4.8989],[50.6315,26.2465,3.6261],[50.631,26.2438,4.0072],[50.634,26.2435,0.0],[50.6349,26.2371,2.4268],[50.6368,26.2376,0.0],[50.6363,26.241,0.6669],[50.641,26.2443,1.5693],[50.6396,26.2449,0.9477],[50.6354,26.2426,0.0],[50.6349,26.2443,0.95009999999999994],[50.6385,26.2468,1.5771],[50.6437,26.2471,4.2618],[50.6437,26.2449,3.979],[50.6476,26.2451,2.3616],[50.6479,26.2412,3.2433],[50.6507,26.2407,5.3727],[50.6501,26.2468,4.6285],[50.6518,26.2468,3.0508],[50.6515,26.2385,4.3215],[50.6479,26.2399,3.0395],[50.649,26.2376,3.7426],[50.6521,26.2374,4.3215],[50.6507,26.2349,4.9693],[50.6524,26.234,5.1264],[50.6524,26.2315,5.1962],[50.6554,26.2335,5.3004],[50.6526,26.2296,3.7915],[50.6574,26.2282,3.0089],[50.6579,26.2343,4.3242],[50.6613,26.2337,2.2282],[50.6599,26.2357,2.5186],[50.6579,26.2354,4.3242],[50.6576,26.2443,3.7897],[50.6618,26.246,0.0],[50.6613,26.2476,0.0],[50.6576,26.2476,4.3357],[50.6565,26.2549,2.2056],[50.6546,26.2543,3.4796],[50.6538,26.2557,1.9047],[50.6563,26.2565,1.8825],[50.6551,26.2632,2.5911],[50.6574,26.2676,4.3675],[50.6574,26.271,4.0921],[50.6549,26.2729,4.864],[50.6568,26.2726,4.0889],[50.6585,26.2757,2.5537],[50.6429,26.2799,4.2181],[50.6393,26.2815,5.3094],[50.6349,26.2876,0.0],[50.6288,26.2882,3.4331]]]]}}