{"type":"Feature","properties":{"ISO3166-1-Alpha-3":"BHR","country":"Bahrain","fill":"#F0F","id":"4929","name":"Al Manāmah"},
"geometry":{"type": "Polygon","coordinates": [[[50.55161,26.19424,3.9653],[50.5656,26.19888,1.8822],[50.59409,26.1953,0.3947],[50.60353,26.19766,0.0],[50.60914,26.20828,4.3926],[50.60914,26.20832,4.3926],[50.60694,26.21239,3.7082],[50.60475,26.2165,4.9386],[50.59742,26.22553,4.5014],[50.59327,26.23859,3.1452],[50.58668,26.2425,4.4986],[50.5455,26.22777,4.2012],[50.54542,26.22773,4.2012],[50.5324,26.2331,5.4842],[50.51637,26.23969,0.0],[50.50392,26.24201,1.1445],[50.50202,26.21611,9.7884],[50.53506,26.21347,7.1416],[50.55161,26.19424,3.9653]]]}}