{"type":"Feature","properties":{"ISO3166-1-Alpha-3":"BHR","country":"Bahrain","fill":"#FF0","id":"4928","name":"Al Wusţá"},
"geometry":{"type": "Polygon","coordinates": [[[50.61629,26.09593,6.2158],[50.61476,26.11115,3.4439],[50.63493,26.11569,3.1233],[50.63551,26.13438,0.0],[50.64566,26.14575,3.953],[50.63278,26.14682,0.9338],[50.62634,26.17044,1.1365],[50.6199,26.18547,3.5701],[50.60487,26.17473,3.3135],[50.59474,26.16031,0.0],[50.55161,26.19424,3.9653],[50.52184,26.18837,2.7244],[50.50995,26.17779,5.3437],[50.52449,26.1289,39.2218],[50.56941,26.11569,45.6374],[50.58131,26.1223,26.8822],[50.61629,26.09593,6.2158]]]}}