{"type":"Feature","properties":{"GID_1":"BHR.1_1","GID_0":"BHR","country":"Bahrain","province":"Capital","VARNAME_1":"Muhafazatal-'Asimah","NL_NAME_1":"NA","TYPE_1":"Muhafazah","ENGTYPE_1":"Governorate","CC_1":"NA","HASC_1":"BH.CA","ISO_1":"NA","name":"Capital.province"},
"geometry":{"type": "MultiPolygon","coordinates": [[[[50.6199,26.096,6.4484],[50.6193,26.0959,3.9193],[50.621,26.0951,0.0],[50.621,26.0963,6.4484],[50.6199,26.096,6.4484]]],
[[[50.5868,26.1904,0.0],[50.5838,26.1913,0.7493],[50.5838,26.1896,1.3586],[50.5793,26.1854,0.0],[50.581,26.1818,6.0853],[50.579,26.1815,0.0],[50.579,26.1763,0.0],[50.5826,26.1763,0.0],[50.586,26.1793,2.809],[50.5915,26.1768,0.0],[50.5915,26.1843,0.0],[50.5876,26.1846,3.1369],[50.5854,26.1882,0.0],[50.5868,26.1904,0.0]]],
[[[50.6221,26.1307,0.6137],[50.629,26.1396,2.2445],[50.63,26.1437,1.6714],[50.6268,26.1457,2.6021],[50.6237,26.1604,2.3032],[50.6271,26.1621,3.2735],[50.6263,26.1657,4.2516],[50.6276,26.1657,4.2516],[50.6285,26.1646,3.7874],[50.6282,26.1696,0.0],[50.6251,26.1724,0.0],[50.6237,26.1774,3.1492],[50.6213,26.1776,2.9851],[50.626,26.1835,0.0],[50.6246,26.1846,0.4238],[50.6249,26.1871,0.0],[50.6138,26.1879,0.0],[50.6101,26.1865,1.2051],[50.5982,26.1743,0.0],[50.6026,26.1707,3.3432],[50.5999,26.1682,2.6247],[50.6021,26.1657,4.4347],[50.6032,26.1604,2.2418],[50.6051,26.1601,2.8865],[50.6043,26.1551,0.0],[50.6082,26.154,4.2967],[50.6096,26.1515,0.1474],[50.6157,26.1488,2.4188],[50.6171,26.1451,3.0009],[50.6196,26.1446,2.0233],[50.6162,26.144,3.0009],[50.6154,26.146,3.9885],[50.6132,26.1454,2.9246],[50.6113,26.1485,0.5173],[50.6085,26.1493,0.0],[50.5979,26.1479,3.6134],[50.5984,26.1499,3.6185],[50.5954,26.1513,0.9023],[50.5943,26.1563,1.4758],[50.5918,26.1593,0.0],[50.5857,26.1626,1.3406],[50.5846,26.1649,0.0],[50.5801,26.1654,5.6259],[50.576,26.1726,0.0],[50.574,26.1726,2.7919],[50.5713,26.1765,1.219],[50.5668,26.1787,2.5552],[50.5671,26.1818,0.4479],[50.5654,26.1821,1.186],[50.564,26.1851,0.7974],[50.5663,26.1874,1.0453],[50.5632,26.1879,4.2119],[50.5638,26.1901,5.1876],[50.5621,26.1907,5.117],[50.5618,26.1935,4.3352],[50.5629,26.1935,5.7529],[50.5638,26.1915,5.117],[50.5654,26.1929,3.5037],[50.5649,26.1963,0.7301],[50.5615,26.196,1.8546],[50.5649,26.1974,0.0],[50.5618,26.1982,4.9052],[50.5621,26.201,4.8369],[50.5696,26.1996,0.9591],[50.5707,26.2015,4.7354],[50.5738,26.2018,0.4556],[50.5768,26.2043,3.8511],[50.5785,26.2035,2.1917],[50.5796,26.2051,5.5472],[50.5821,26.2029,3.3677],[50.5871,26.2024,6.4112],[50.5865,26.1985,0.3501],[50.5899,26.1985,3.8541],[50.5901,26.1957,4.5177],[50.5946,26.1938,0.3947],[50.5999,26.1971,7.2886],[50.6087,26.1963,0.0],[50.609,26.1979,0.0],[50.6063,26.1982,0.0],[50.6068,26.2004,0.8208],[50.6107,26.1988,1.8138],[50.6132,26.2007,1.9962],[50.6143,26.199,0.0],[50.6224,26.1965,0.0],[50.6157,26.2013,0.0],[50.6235,26.2085,1.051],[50.6224,26.215699999999998,2.6962],[50.6179,26.2165,3.8944],[50.6154,26.2151,4.4513],[50.6143,26.2176,4.2138],[50.6157,26.2201,-0.3884],[50.6126,26.2199,4.2691],[50.6113,26.215699999999998,5.7912],[50.6093,26.2207,2.9171],[50.6057,26.2215,0.4335],[50.6054,26.2193,6.1128],[50.6051,26.221,0.4335],[50.5985,26.2199,3.4114],[50.5976,26.221,4.1837],[50.5993,26.2268,1.1842],[50.6013,26.2279,0.0],[50.5996,26.2349,0.0],[50.601,26.2374,0.0],[50.5993,26.2418,0.2366],[50.5921,26.2438,3.6215],[50.5915,26.2457,2.2253],[50.5954,26.2576,2.0737],[50.5882,26.2446,3.5497],[50.5782,26.241,0.0],[50.574,26.236,3.8833],[50.5707,26.2388,2.1147],[50.5693,26.2346,2.5328],[50.5649,26.2343,0.0],[50.5657,26.2329,3.4826],[50.5632,26.231,4.3409],[50.5588,26.2304,2.5493],[50.5596,26.2279,2.7098],[50.5574,26.2246,5.4797],[50.5537,26.2251,-0.3136],[50.5549,26.2265,2.9909],[50.5518,26.2243,3.1031],[50.5529,26.2271,2.813],[50.5476,26.2299,0.7564],[50.5449,26.2293,4.7327],[50.5437,26.2265,5.0632],[50.541,26.2268,2.4136],[50.5421,26.2254,6.5298],[50.5396,26.2257,2.4136],[50.539,26.2285,3.8947],[50.534,26.2288,3.9205],[50.536,26.2299,4.3746],[50.5343,26.2313,5.2873],[50.5343,26.2349,3.5803],[50.5329,26.2329,5.4842],[50.5321,26.2357,2.3667],[50.5299,26.2346,3.1578],[50.5238,26.2357,2.3282],[50.5229,26.2318,6.7415],[50.5193,26.2321,10.007],[50.5221,26.2329,7.0849],[50.5226,26.2357,0.5394],[50.5149,26.2354,6.3001],[50.5181,26.2289,6.7198],[50.5177,26.2261,9.6503],[50.5138,26.2216,9.7115],[50.5145,26.2187,8.6806],[50.5294,26.2154,9.1765],[50.5421,26.1969,2.5263],[50.5457,26.1657,9.3724],[50.5584,26.1695,9.9415],[50.5698,26.1666,5.9293],[50.5768,26.1533,7.0106],[50.5872,26.1437,4.3177],[50.5979,26.1363,4.0968],[50.6012,26.1363,3.6237],[50.6153,26.1241,1.8929],[50.6194,26.1276,0.9761],[50.6135,26.1399,4.1485],[50.6146,26.1413,4.1273],[50.6174,26.1401,2.0319],[50.6201,26.1335,0.3042],[50.6193,26.1318,0.241],[50.621,26.1326,0.3042],[50.6221,26.1307,0.6137]]],
[[[50.554,26.2307,3.488],[50.5526,26.2324,1.2055],[50.5518,26.2293,9.1741],[50.5537,26.229,2.788],[50.554,26.2307,3.488]]],
[[[50.5374,26.2346,4.5259],[50.536,26.2354,4.8847],[50.5351,26.2315,6.8413],[50.5376,26.2304,7.8872],[50.5385,26.2315,4.6365],[50.5404,26.2282,3.3664],[50.5446,26.229,4.7327],[50.5443,26.2315,5.0324],[50.5415,26.231,5.0243],[50.541,26.2343,4.3822],[50.5374,26.2346,4.5259]]],
[[[50.539,26.2451,4.7506],[50.5354,26.2449,3.1452],[50.5354,26.2404,0.4702],[50.5418,26.2429,1.575],[50.5421,26.2451,0.0],[50.5399,26.2435,3.7907],[50.539,26.2451,4.7506]]]]}}